{"fetched_at":"2026-07-20T07:40:17.151Z","source":"https://celestrak.org/NORAD/elements/gp.php?GROUP=kuiper&FORMAT=JSON","constellation":"kuiper","records":[{"OBJECT_NAME":"KUIPER-00549","OBJECT_ID":"2026-140AA","EPOCH":"2026-07-19T19:53:57.790176","CLASSIFICATION_TYPE":"U","MEAN_MOTION":15.37400058,"ECCENTRICITY":0.0008145,"INCLINATION":51.8778,"RA_OF_ASC_NODE":240.9943,"ARG_OF_PERICENTER":30.4752,"MEAN_ANOMALY":329.6707,"EPHEMERIS_TYPE":0,"NORAD_CAT_ID":69616,"ELEMENT_SET_NO":999,"REV_AT_EPOCH":625,"BSTAR":0.00040981,"MEAN_MOTION_DOT":0.00014911,"MEAN_MOTION_DDOT":0},{"OBJECT_NAME":"KUIPER-00550","OBJECT_ID":"2026-140AB","EPOCH":"2026-07-19T19:56:05.722656","CLASSIFICATION_TYPE":"U","MEAN_MOTION":15.31349798,"ECCENTRICITY":0.0008669,"INCLINATION":51.8787,"RA_OF_ASC_NODE":241.7353,"ARG_OF_PERICENTER":76.8171,"MEAN_ANOMALY":283.378,"EPHEMERIS_TYPE":0,"NORAD_CAT_ID":69617,"ELEMENT_SET_NO":999,"REV_AT_EPOCH":624,"BSTAR":0.00022107,"MEAN_MOTION_DOT":0.00006435,"MEAN_MOTION_DDOT":0},{"OBJECT_NAME":"KUIPER-00551","OBJECT_ID":"2026-140AC","EPOCH":"2026-07-19T08:14:47.883264","CLASSIFICATION_TYPE":"U","MEAN_MOTION":15.38296379,"ECCENTRICITY":0.00122754,"INCLINATION":51.8765,"RA_OF_ASC_NODE":242.9979,"ARG_OF_PERICENTER":294.6036,"MEAN_ANOMALY":65.3672,"EPHEMERIS_TYPE":0,"NORAD_CAT_ID":69618,"ELEMENT_SET_NO":999,"REV_AT_EPOCH":618,"BSTAR":0.0001712441,"MEAN_MOTION_DOT":0.00006185,"MEAN_MOTION_DDOT":0},{"OBJECT_NAME":"KUIPER-00554","OBJECT_ID":"2026-140AD","EPOCH":"2026-07-19T11:31:13.937952","CLASSIFICATION_TYPE":"U","MEAN_MOTION":15.38046548,"ECCENTRICITY":0.00111852,"INCLINATION":51.8761,"RA_OF_ASC_NODE":242.4097,"ARG_OF_PERICENTER":307.672,"MEAN_ANOMALY":52.3252,"EPHEMERIS_TYPE":0,"NORAD_CAT_ID":69619,"ELEMENT_SET_NO":999,"REV_AT_EPOCH":620,"BSTAR":0.00030511504,"MEAN_MOTION_DOT":0.00011244,"MEAN_MOTION_DDOT":0},{"OBJECT_NAME":"KUIPER-00555","OBJECT_ID":"2026-140AE","EPOCH":"2026-07-19T11:27:34.595136","CLASSIFICATION_TYPE":"U","MEAN_MOTION":15.37959874,"ECCENTRICITY":0.00115708,"INCLINATION":51.8799,"RA_OF_ASC_NODE":242.4033,"ARG_OF_PERICENTER":294.7126,"MEAN_ANOMALY":65.2656,"EPHEMERIS_TYPE":0,"NORAD_CAT_ID":69620,"ELEMENT_SET_NO":999,"REV_AT_EPOCH":620,"BSTAR":0.00037050883,"MEAN_MOTION_DOT":0.00013706,"MEAN_MOTION_DDOT":0},{"OBJECT_NAME":"KUIPER-00556","OBJECT_ID":"2026-140AF","EPOCH":"2026-07-19T12:57:58.934016","CLASSIFICATION_TYPE":"U","MEAN_MOTION":15.38324848,"ECCENTRICITY":0.0012329,"INCLINATION":51.8777,"RA_OF_ASC_NODE":242.0718,"ARG_OF_PERICENTER":284.9538,"MEAN_ANOMALY":75.0084,"EPHEMERIS_TYPE":0,"NORAD_CAT_ID":69621,"ELEMENT_SET_NO":999,"REV_AT_EPOCH":621,"BSTAR":0.00040468,"MEAN_MOTION_DOT":0.00015198,"MEAN_MOTION_DDOT":0},{"OBJECT_NAME":"KUIPER-00557","OBJECT_ID":"2026-140AG","EPOCH":"2026-07-19T19:29:41.697024","CLASSIFICATION_TYPE":"U","MEAN_MOTION":15.37523997,"ECCENTRICITY":0.000962,"INCLINATION":51.8783,"RA_OF_ASC_NODE":240.8937,"ARG_OF_PERICENTER":317.3548,"MEAN_ANOMALY":42.6691,"EPHEMERIS_TYPE":0,"NORAD_CAT_ID":69622,"ELEMENT_SET_NO":999,"REV_AT_EPOCH":625,"BSTAR":0.00029115,"MEAN_MOTION_DOT":0.0001052,"MEAN_MOTION_DDOT":0},{"OBJECT_NAME":"KUIPER-00560","OBJECT_ID":"2026-140AH","EPOCH":"2026-07-19T11:30:10.951488","CLASSIFICATION_TYPE":"U","MEAN_MOTION":15.37050809,"ECCENTRICITY":0.00090616,"INCLINATION":51.8776,"RA_OF_ASC_NODE":242.4044,"ARG_OF_PERICENTER":326.9199,"MEAN_ANOMALY":33.1219,"EPHEMERIS_TYPE":0,"NORAD_CAT_ID":69623,"ELEMENT_SET_NO":999,"REV_AT_EPOCH":620,"BSTAR":0.00027987257,"MEAN_MOTION_DOT":0.00009937,"MEAN_MOTION_DDOT":0},{"OBJECT_NAME":"KUIPER-00561","OBJECT_ID":"2026-140AJ","EPOCH":"2026-07-19T08:18:54.413568","CLASSIFICATION_TYPE":"U","MEAN_MOTION":15.38787361,"ECCENTRICITY":0.00076697,"INCLINATION":51.8797,"RA_OF_ASC_NODE":243.0265,"ARG_OF_PERICENTER":320.772,"MEAN_ANOMALY":39.2711,"EPHEMERIS_TYPE":0,"NORAD_CAT_ID":69624,"ELEMENT_SET_NO":999,"REV_AT_EPOCH":618,"BSTAR":0.00025278654,"MEAN_MOTION_DOT":0.00009468,"MEAN_MOTION_DDOT":0},{"OBJECT_NAME":"KUIPER-00564","OBJECT_ID":"2026-140AK","EPOCH":"2026-07-19T11:38:37.668480","CLASSIFICATION_TYPE":"U","MEAN_MOTION":15.37206256,"ECCENTRICITY":0.00089507,"INCLINATION":51.8787,"RA_OF_ASC_NODE":242.4501,"ARG_OF_PERICENTER":317.1109,"MEAN_ANOMALY":42.9179,"EPHEMERIS_TYPE":0,"NORAD_CAT_ID":69625,"ELEMENT_SET_NO":999,"REV_AT_EPOCH":620,"BSTAR":0.00034238454,"MEAN_MOTION_DOT":0.00012312,"MEAN_MOTION_DDOT":0},{"OBJECT_NAME":"KUIPER-00567","OBJECT_ID":"2026-140AL","EPOCH":"2026-07-19T08:13:30.930240","CLASSIFICATION_TYPE":"U","MEAN_MOTION":15.3835515,"ECCENTRICITY":0.00128721,"INCLINATION":51.8751,"RA_OF_ASC_NODE":242.9864,"ARG_OF_PERICENTER":283.6859,"MEAN_ANOMALY":76.2695,"EPHEMERIS_TYPE":0,"NORAD_CAT_ID":69626,"ELEMENT_SET_NO":999,"REV_AT_EPOCH":618,"BSTAR":0.00027780936,"MEAN_MOTION_DOT":0.00010312,"MEAN_MOTION_DDOT":0},{"OBJECT_NAME":"KUIPER-00573","OBJECT_ID":"2026-140AM","EPOCH":"2026-07-19T19:35:09.745728","CLASSIFICATION_TYPE":"U","MEAN_MOTION":15.37559259,"ECCENTRICITY":0.0009429,"INCLINATION":51.8762,"RA_OF_ASC_NODE":240.9075,"ARG_OF_PERICENTER":305.1296,"MEAN_ANOMALY":54.8806,"EPHEMERIS_TYPE":0,"NORAD_CAT_ID":69627,"ELEMENT_SET_NO":999,"REV_AT_EPOCH":625,"BSTAR":0.00037979,"MEAN_MOTION_DOT":0.00013865,"MEAN_MOTION_DDOT":0},{"OBJECT_NAME":"KUIPER-00258","OBJECT_ID":"2026-151A","EPOCH":"2026-07-19T08:51:00.520128","CLASSIFICATION_TYPE":"U","MEAN_MOTION":15.34701303,"ECCENTRICITY":0.00110882,"INCLINATION":51.8677,"RA_OF_ASC_NODE":160.4478,"ARG_OF_PERICENTER":185.2272,"MEAN_ANOMALY":174.86,"EPHEMERIS_TYPE":0,"NORAD_CAT_ID":69763,"ELEMENT_SET_NO":999,"REV_AT_EPOCH":265,"BSTAR":0.00048363704,"MEAN_MOTION_DOT":0.00016196,"MEAN_MOTION_DDOT":0},{"OBJECT_NAME":"KUIPER-00526","OBJECT_ID":"2026-151B","EPOCH":"2026-07-19T20:49:07.802688","CLASSIFICATION_TYPE":"U","MEAN_MOTION":15.37390833,"ECCENTRICITY":0.0005762,"INCLINATION":51.8774,"RA_OF_ASC_NODE":157.8037,"ARG_OF_PERICENTER":155.3339,"MEAN_ANOMALY":204.7925,"EPHEMERIS_TYPE":0,"NORAD_CAT_ID":69764,"ELEMENT_SET_NO":999,"REV_AT_EPOCH":273,"BSTAR":0.00030371,"MEAN_MOTION_DOT":0.00010935,"MEAN_MOTION_DDOT":0},{"OBJECT_NAME":"KUIPER-00558","OBJECT_ID":"2026-151C","EPOCH":"2026-07-19T20:00:01.999008","CLASSIFICATION_TYPE":"U","MEAN_MOTION":15.31356703,"ECCENTRICITY":0.0006846,"INCLINATION":51.8794,"RA_OF_ASC_NODE":158.1116,"ARG_OF_PERICENTER":167.1073,"MEAN_ANOMALY":290.6555,"EPHEMERIS_TYPE":0,"NORAD_CAT_ID":69765,"ELEMENT_SET_NO":999,"REV_AT_EPOCH":333,"BSTAR":-0.018413,"MEAN_MOTION_DOT":-0.00528659,"MEAN_MOTION_DDOT":0},{"OBJECT_NAME":"KUIPER-00569","OBJECT_ID":"2026-151D","EPOCH":"2026-07-19T00:00:00.999648","CLASSIFICATION_TYPE":"U","MEAN_MOTION":15.37536026,"ECCENTRICITY":0.00051062,"INCLINATION":51.88,"RA_OF_ASC_NODE":161.9756,"ARG_OF_PERICENTER":149.5744,"MEAN_ANOMALY":96.8948,"EPHEMERIS_TYPE":0,"NORAD_CAT_ID":69766,"ELEMENT_SET_NO":999,"REV_AT_EPOCH":169,"BSTAR":-0.00028959487,"MEAN_MOTION_DOT":-0.00011214,"MEAN_MOTION_DDOT":0}]}
