KUIPER-00549            
1 69616U 26140AA  26200.82914109  .00014911  00000+0  40981-3 0  9995
2 69616  51.8778 240.9943 0008145  30.4752 329.6707 15.37400058  6256
KUIPER-00550            
1 69617U 26140AB  26200.83062179  .00006435  00000+0  22107-3 0  9990
2 69617  51.8787 241.7353 0008669  76.8171 283.3780 15.31349798  6244
KUIPER-00551            
1 69618U 26140AC  26200.34360976  .00006185  00000+0  17124-3 0  9998
2 69618  51.8765 242.9979 0012275 294.6036  65.3672 15.38296379  6180
KUIPER-00554            
1 69619U 26140AD  26200.48002243  .00011244  00000+0  30512-3 0  9992
2 69619  51.8761 242.4097 0011185 307.6720  52.3252 15.38046548  6201
KUIPER-00555            
1 69620U 26140AE  26200.47748374  .00013706  00000+0  37051-3 0  9995
2 69620  51.8799 242.4033 0011570 294.7126  65.2656 15.37959874  6203
KUIPER-00556            
1 69621U 26140AF  26200.54026544  .00015198  00000+0  40468-3 0  9995
2 69621  51.8777 242.0718 0012329 284.9538  75.0084 15.38324848  6210
KUIPER-00557            
1 69622U 26140AG  26200.81228816  .00010520  00000+0  29115-3 0  9992
2 69622  51.8783 240.8937 0009620 317.3548  42.6691 15.37523997  6252
KUIPER-00560            
1 69623U 26140AH  26200.47929342  .00009937  00000+0  27987-3 0  9992
2 69623  51.8776 242.4044 0009061 326.9199  33.1219 15.37050809  6202
KUIPER-00561            
1 69624U 26140AJ  26200.34646312  .00009468  00000+0  25279-3 0  9993
2 69624  51.8797 243.0265 0007669 320.7720  39.2711 15.38787361  6184
KUIPER-00564            
1 69625U 26140AK  26200.48515820  .00012312  00000+0  34238-3 0  9995
2 69625  51.8787 242.4501 0008950 317.1109  42.9179 15.37206256  6205
KUIPER-00567            
1 69626U 26140AL  26200.34271910  .00010312  00000+0  27781-3 0  9993
2 69626  51.8751 242.9864 0012872 283.6859  76.2695 15.38355150  6180
KUIPER-00573            
1 69627U 26140AM  26200.81608502  .00013865  00000+0  37979-3 0  9993
2 69627  51.8762 240.9075 0009429 305.1296  54.8806 15.37559259  6253
KUIPER-00258            
1 69763U 26151A   26200.36875602  .00016196  00000+0  48364-3 0  9993
2 69763  51.8677 160.4478 0011088 185.2272 174.8600 15.34701303  2658
KUIPER-00526            
1 69764U 26151B   26200.86745142  .00010935  00000+0  30371-3 0  9998
2 69764  51.8774 157.8037 0005762 155.3339 204.7925 15.37390833  2739
KUIPER-00558            
1 69765U 26151C   26200.83335647 -.00528659  00000+0 -18413-1 0  9991
2 69765  51.8794 158.1116 0006846 167.1073 290.6555 15.31356703  3336
KUIPER-00569            
1 69766U 26151D   26200.00001157 -.00011214  00000+0 -28959-3 0  9999
2 69766  51.8800 161.9756 0005106 149.5744  96.8948 15.37536026  1697
